<?xml version='1.0' encoding='UTF-8'?>
<gpx xmlns="http://www.topografix.com/GPX/1/1" creator="GPX Simulator" version="1.1">
 <trk>
  <trkseg>
   <trkpt lat="31.2913840" lon="121.2122542">
    <ele>4</ele>
    <time>2024-01-01T00:00:00Z</time>
    </trkpt>
   <trkpt lat="31.2913789" lon="121.2122737">
    <ele>4</ele>
    <time>2024-01-01T00:00:01Z</time>
    </trkpt>
   <trkpt lat="31.2913757" lon="121.2122889">
    <ele>4</ele>
    <time>2024-01-01T00:00:02Z</time>
    </trkpt>
   <trkpt lat="31.2913725" lon="121.2123041">
    <ele>4</ele>
    <time>2024-01-01T00:00:03Z</time>
    </trkpt>
   <trkpt lat="31.2913684" lon="121.2123315">
    <ele>4</ele>
    <time>2024-01-01T00:00:04Z</time>
    </trkpt>
   <trkpt lat="31.2913651" lon="121.2123690">
    <ele>4</ele>
    <time>2024-01-01T00:00:05Z</time>
    </trkpt>
   <trkpt lat="31.2913645" lon="121.2124056">
    <ele>4</ele>
    <time>2024-01-01T00:00:06Z</time>
    </trkpt>
   <trkpt lat="31.2913663" lon="121.2124409">
    <ele>4</ele>
    <time>2024-01-01T00:00:07Z</time>
    </trkpt>
   <trkpt lat="31.2913703" lon="121.2124744">
    <ele>4</ele>
    <time>2024-01-01T00:00:08Z</time>
    </trkpt>
   <trkpt lat="31.2913763" lon="121.2125067">
    <ele>4</ele>
    <time>2024-01-01T00:00:09Z</time>
    </trkpt>
   <trkpt lat="31.2913840" lon="121.2125376">
    <ele>4</ele>
    <time>2024-01-01T00:00:10Z</time>
    </trkpt>
   <trkpt lat="31.2913934" lon="121.2125673">
    <ele>3</ele>
    <time>2024-01-01T00:00:11Z</time>
    </trkpt>
   <trkpt lat="31.2914043" lon="121.2125954">
    <ele>3</ele>
    <time>2024-01-01T00:00:12Z</time>
    </trkpt>
   <trkpt lat="31.2914166" lon="121.2126223">
    <ele>3</ele>
    <time>2024-01-01T00:00:13Z</time>
    </trkpt>
   <trkpt lat="31.2914305" lon="121.2126482">
    <ele>3</ele>
    <time>2024-01-01T00:00:14Z</time>
    </trkpt>
   <trkpt lat="31.2914464" lon="121.2126736">
    <ele>3</ele>
    <time>2024-01-01T00:00:15Z</time>
    </trkpt>
   <trkpt lat="31.2914640" lon="121.2126980">
    <ele>3</ele>
    <time>2024-01-01T00:00:16Z</time>
    </trkpt>
   <trkpt lat="31.2914840" lon="121.2127220">
    <ele>3</ele>
    <time>2024-01-01T00:00:17Z</time>
    </trkpt>
   <trkpt lat="31.2915058" lon="121.2127445">
    <ele>3</ele>
    <time>2024-01-01T00:00:18Z</time>
    </trkpt>
   <trkpt lat="31.2915299" lon="121.2127657">
    <ele>3</ele>
    <time>2024-01-01T00:00:19Z</time>
    </trkpt>
   <trkpt lat="31.2915553" lon="121.2127846">
    <ele>3</ele>
    <time>2024-01-01T00:00:20Z</time>
    </trkpt>
   <trkpt lat="31.2915824" lon="121.2128015">
    <ele>3</ele>
    <time>2024-01-01T00:00:21Z</time>
    </trkpt>
   <trkpt lat="31.2916109" lon="121.2128159">
    <ele>3</ele>
    <time>2024-01-01T00:00:22Z</time>
    </trkpt>
   <trkpt lat="31.2916404" lon="121.2128276">
    <ele>3</ele>
    <time>2024-01-01T00:00:23Z</time>
    </trkpt>
   <trkpt lat="31.2916702" lon="121.2128363">
    <ele>3</ele>
    <time>2024-01-01T00:00:24Z</time>
    </trkpt>
   <trkpt lat="31.2917004" lon="121.2128423">
    <ele>3</ele>
    <time>2024-01-01T00:00:25Z</time>
    </trkpt>
   <trkpt lat="31.2917330" lon="121.2128458">
    <ele>3</ele>
    <time>2024-01-01T00:00:26Z</time>
    </trkpt>
   <trkpt lat="31.2917655" lon="121.2128489">
    <ele>3</ele>
    <time>2024-01-01T00:00:27Z</time>
    </trkpt>
   <trkpt lat="31.2917972" lon="121.2128519">
    <ele>3</ele>
    <time>2024-01-01T00:00:28Z</time>
    </trkpt>
   <trkpt lat="31.2918269" lon="121.2128548">
    <ele>3</ele>
    <time>2024-01-01T00:00:29Z</time>
    </trkpt>
   <trkpt lat="31.2918560" lon="121.2128575">
    <ele>3</ele>
    <time>2024-01-01T00:00:30Z</time>
    </trkpt>
   <trkpt lat="31.2918845" lon="121.2128603">
    <ele>3</ele>
    <time>2024-01-01T00:00:31Z</time>
    </trkpt>
   <trkpt lat="31.2919125" lon="121.2128629">
    <ele>3</ele>
    <time>2024-01-01T00:00:32Z</time>
    </trkpt>
   <trkpt lat="31.2919404" lon="121.2128656">
    <ele>3</ele>
    <time>2024-01-01T00:00:33Z</time>
    </trkpt>
   <trkpt lat="31.2919679" lon="121.2128682">
    <ele>3</ele>
    <time>2024-01-01T00:00:34Z</time>
    </trkpt>
   <trkpt lat="31.2919960" lon="121.2128709">
    <ele>3</ele>
    <time>2024-01-01T00:00:35Z</time>
    </trkpt>
   <trkpt lat="31.2920242" lon="121.2128736">
    <ele>3</ele>
    <time>2024-01-01T00:00:36Z</time>
    </trkpt>
   <trkpt lat="31.2920525" lon="121.2128763">
    <ele>3</ele>
    <time>2024-01-01T00:00:37Z</time>
    </trkpt>
   <trkpt lat="31.2920810" lon="121.2128790">
    <ele>3</ele>
    <time>2024-01-01T00:00:38Z</time>
    </trkpt>
   <trkpt lat="31.2921105" lon="121.2128818">
    <ele>3</ele>
    <time>2024-01-01T00:00:39Z</time>
    </trkpt>
   <trkpt lat="31.2921375" lon="121.2128844">
    <ele>3</ele>
    <time>2024-01-01T00:00:40Z</time>
    </trkpt>
   <trkpt lat="31.2921640" lon="121.2128869">
    <ele>3</ele>
    <time>2024-01-01T00:00:41Z</time>
    </trkpt>
   <trkpt lat="31.2921905" lon="121.2128894">
    <ele>3</ele>
    <time>2024-01-01T00:00:42Z</time>
    </trkpt>
   <trkpt lat="31.2922176" lon="121.2128920">
    <ele>3</ele>
    <time>2024-01-01T00:00:43Z</time>
    </trkpt>
   <trkpt lat="31.2922450" lon="121.2128946">
    <ele>3</ele>
    <time>2024-01-01T00:00:44Z</time>
    </trkpt>
   <trkpt lat="31.2922717" lon="121.2128972">
    <ele>3</ele>
    <time>2024-01-01T00:00:45Z</time>
    </trkpt>
   <trkpt lat="31.2922984" lon="121.2128997">
    <ele>3</ele>
    <time>2024-01-01T00:00:46Z</time>
    </trkpt>
   <trkpt lat="31.2923254" lon="121.2129023">
    <ele>3</ele>
    <time>2024-01-01T00:00:47Z</time>
    </trkpt>
   <trkpt lat="31.2923527" lon="121.2129049">
    <ele>3</ele>
    <time>2024-01-01T00:00:48Z</time>
    </trkpt>
   <trkpt lat="31.2923803" lon="121.2129075">
    <ele>3</ele>
    <time>2024-01-01T00:00:49Z</time>
    </trkpt>
   <trkpt lat="31.2924083" lon="121.2129102">
    <ele>3</ele>
    <time>2024-01-01T00:00:50Z</time>
    </trkpt>
   <trkpt lat="31.2924371" lon="121.2129129">
    <ele>3</ele>
    <time>2024-01-01T00:00:51Z</time>
    </trkpt>
   <trkpt lat="31.2924663" lon="121.2129157">
    <ele>3</ele>
    <time>2024-01-01T00:00:52Z</time>
    </trkpt>
   <trkpt lat="31.2924966" lon="121.2129178">
    <ele>3</ele>
    <time>2024-01-01T00:00:53Z</time>
    </trkpt>
   <trkpt lat="31.2925271" lon="121.2129171">
    <ele>3</ele>
    <time>2024-01-01T00:00:54Z</time>
    </trkpt>
   <trkpt lat="31.2925572" lon="121.2129136">
    <ele>3</ele>
    <time>2024-01-01T00:00:55Z</time>
    </trkpt>
   <trkpt lat="31.2925872" lon="121.2129073">
    <ele>3</ele>
    <time>2024-01-01T00:00:56Z</time>
    </trkpt>
   <trkpt lat="31.2926164" lon="121.2128984">
    <ele>3</ele>
    <time>2024-01-01T00:00:57Z</time>
    </trkpt>
   <trkpt lat="31.2926451" lon="121.2128867">
    <ele>3</ele>
    <time>2024-01-01T00:00:58Z</time>
    </trkpt>
   <trkpt lat="31.2926730" lon="121.2128723">
    <ele>3</ele>
    <time>2024-01-01T00:00:59Z</time>
    </trkpt>
   <trkpt lat="31.2926998" lon="121.2128555">
    <ele>3</ele>
    <time>2024-01-01T00:01:00Z</time>
    </trkpt>
   <trkpt lat="31.2927253" lon="121.2128363">
    <ele>3</ele>
    <time>2024-01-01T00:01:01Z</time>
    </trkpt>
   <trkpt lat="31.2927489" lon="121.2128153">
    <ele>3</ele>
    <time>2024-01-01T00:01:02Z</time>
    </trkpt>
   <trkpt lat="31.2927703" lon="121.2127930">
    <ele>3</ele>
    <time>2024-01-01T00:01:03Z</time>
    </trkpt>
   <trkpt lat="31.2927898" lon="121.2127695">
    <ele>3</ele>
    <time>2024-01-01T00:01:04Z</time>
    </trkpt>
   <trkpt lat="31.2928074" lon="121.2127450">
    <ele>3</ele>
    <time>2024-01-01T00:01:05Z</time>
    </trkpt>
   <trkpt lat="31.2928232" lon="121.2127196">
    <ele>3</ele>
    <time>2024-01-01T00:01:06Z</time>
    </trkpt>
   <trkpt lat="31.2928373" lon="121.2126933">
    <ele>3</ele>
    <time>2024-01-01T00:01:07Z</time>
    </trkpt>
   <trkpt lat="31.2928498" lon="121.2126658">
    <ele>3</ele>
    <time>2024-01-01T00:01:08Z</time>
    </trkpt>
   <trkpt lat="31.2928608" lon="121.2126370">
    <ele>3</ele>
    <time>2024-01-01T00:01:09Z</time>
    </trkpt>
   <trkpt lat="31.2928701" lon="121.2126072">
    <ele>4</ele>
    <time>2024-01-01T00:01:10Z</time>
    </trkpt>
   <trkpt lat="31.2928776" lon="121.2125764">
    <ele>4</ele>
    <time>2024-01-01T00:01:11Z</time>
    </trkpt>
   <trkpt lat="31.2928833" lon="121.2125447">
    <ele>4</ele>
    <time>2024-01-01T00:01:12Z</time>
    </trkpt>
   <trkpt lat="31.2928870" lon="121.2125136">
    <ele>4</ele>
    <time>2024-01-01T00:01:13Z</time>
    </trkpt>
   <trkpt lat="31.2928887" lon="121.2124832">
    <ele>4</ele>
    <time>2024-01-01T00:01:14Z</time>
    </trkpt>
   <trkpt lat="31.2928888" lon="121.2124534">
    <ele>5</ele>
    <time>2024-01-01T00:01:15Z</time>
    </trkpt>
   <trkpt lat="31.2928871" lon="121.2124234">
    <ele>5</ele>
    <time>2024-01-01T00:01:16Z</time>
    </trkpt>
   <trkpt lat="31.2928838" lon="121.2123941">
    <ele>5</ele>
    <time>2024-01-01T00:01:17Z</time>
    </trkpt>
   <trkpt lat="31.2928787" lon="121.2123644">
    <ele>5</ele>
    <time>2024-01-01T00:01:18Z</time>
    </trkpt>
   <trkpt lat="31.2928717" lon="121.2123347">
    <ele>5</ele>
    <time>2024-01-01T00:01:19Z</time>
    </trkpt>
   <trkpt lat="31.2928628" lon="121.2123047">
    <ele>5</ele>
    <time>2024-01-01T00:01:20Z</time>
    </trkpt>
   <trkpt lat="31.2928519" lon="121.2122751">
    <ele>4</ele>
    <time>2024-01-01T00:01:21Z</time>
    </trkpt>
   <trkpt lat="31.2928389" lon="121.2122460">
    <ele>4</ele>
    <time>2024-01-01T00:01:22Z</time>
    </trkpt>
   <trkpt lat="31.2928239" lon="121.2122174">
    <ele>4</ele>
    <time>2024-01-01T00:01:23Z</time>
    </trkpt>
   <trkpt lat="31.2928064" lon="121.2121894">
    <ele>4</ele>
    <time>2024-01-01T00:01:24Z</time>
    </trkpt>
   <trkpt lat="31.2927870" lon="121.2121627">
    <ele>4</ele>
    <time>2024-01-01T00:01:25Z</time>
    </trkpt>
   <trkpt lat="31.2927657" lon="121.2121378">
    <ele>3</ele>
    <time>2024-01-01T00:01:26Z</time>
    </trkpt>
   <trkpt lat="31.2927426" lon="121.2121146">
    <ele>3</ele>
    <time>2024-01-01T00:01:27Z</time>
    </trkpt>
   <trkpt lat="31.2927174" lon="121.2120933">
    <ele>3</ele>
    <time>2024-01-01T00:01:28Z</time>
    </trkpt>
   <trkpt lat="31.2926901" lon="121.2120739">
    <ele>3</ele>
    <time>2024-01-01T00:01:29Z</time>
    </trkpt>
   <trkpt lat="31.2926603" lon="121.2120566">
    <ele>3</ele>
    <time>2024-01-01T00:01:30Z</time>
    </trkpt>
   <trkpt lat="31.2926281" lon="121.2120419">
    <ele>3</ele>
    <time>2024-01-01T00:01:31Z</time>
    </trkpt>
   <trkpt lat="31.2925940" lon="121.2120304">
    <ele>3</ele>
    <time>2024-01-01T00:01:32Z</time>
    </trkpt>
   <trkpt lat="31.2925582" lon="121.2120224">
    <ele>3</ele>
    <time>2024-01-01T00:01:33Z</time>
    </trkpt>
   <trkpt lat="31.2925230" lon="121.2120183">
    <ele>3</ele>
    <time>2024-01-01T00:01:34Z</time>
    </trkpt>
   <trkpt lat="31.2924889" lon="121.2120150">
    <ele>4</ele>
    <time>2024-01-01T00:01:35Z</time>
    </trkpt>
   <trkpt lat="31.2924556" lon="121.2120118">
    <ele>4</ele>
    <time>2024-01-01T00:01:36Z</time>
    </trkpt>
   <trkpt lat="31.2924227" lon="121.2120087">
    <ele>4</ele>
    <time>2024-01-01T00:01:37Z</time>
    </trkpt>
   <trkpt lat="31.2923903" lon="121.2120056">
    <ele>4</ele>
    <time>2024-01-01T00:01:38Z</time>
    </trkpt>
   <trkpt lat="31.2923591" lon="121.2120027">
    <ele>4</ele>
    <time>2024-01-01T00:01:39Z</time>
    </trkpt>
   <trkpt lat="31.2923287" lon="121.2119998">
    <ele>4</ele>
    <time>2024-01-01T00:01:40Z</time>
    </trkpt>
   <trkpt lat="31.2922987" lon="121.2119969">
    <ele>3</ele>
    <time>2024-01-01T00:01:41Z</time>
    </trkpt>
   <trkpt lat="31.2922688" lon="121.2119940">
    <ele>3</ele>
    <time>2024-01-01T00:01:42Z</time>
    </trkpt>
   <trkpt lat="31.2922389" lon="121.2119912">
    <ele>3</ele>
    <time>2024-01-01T00:01:43Z</time>
    </trkpt>
   <trkpt lat="31.2922094" lon="121.2119884">
    <ele>3</ele>
    <time>2024-01-01T00:01:44Z</time>
    </trkpt>
   <trkpt lat="31.2921800" lon="121.2119856">
    <ele>3</ele>
    <time>2024-01-01T00:01:45Z</time>
    </trkpt>
   <trkpt lat="31.2921508" lon="121.2119828">
    <ele>3</ele>
    <time>2024-01-01T00:01:46Z</time>
    </trkpt>
   <trkpt lat="31.2921215" lon="121.2119800">
    <ele>3</ele>
    <time>2024-01-01T00:01:47Z</time>
    </trkpt>
   <trkpt lat="31.2920927" lon="121.2119773">
    <ele>3</ele>
    <time>2024-01-01T00:01:48Z</time>
    </trkpt>
   <trkpt lat="31.2920643" lon="121.2119746">
    <ele>3</ele>
    <time>2024-01-01T00:01:49Z</time>
    </trkpt>
   <trkpt lat="31.2920363" lon="121.2119719">
    <ele>3</ele>
    <time>2024-01-01T00:01:50Z</time>
    </trkpt>
   <trkpt lat="31.2920077" lon="121.2119692">
    <ele>2</ele>
    <time>2024-01-01T00:01:51Z</time>
    </trkpt>
   <trkpt lat="31.2919790" lon="121.2119664">
    <ele>2</ele>
    <time>2024-01-01T00:01:52Z</time>
    </trkpt>
   <trkpt lat="31.2919502" lon="121.2119637">
    <ele>2</ele>
    <time>2024-01-01T00:01:53Z</time>
    </trkpt>
   <trkpt lat="31.2919218" lon="121.2119610">
    <ele>2</ele>
    <time>2024-01-01T00:01:54Z</time>
    </trkpt>
   <trkpt lat="31.2918933" lon="121.2119583">
    <ele>2</ele>
    <time>2024-01-01T00:01:55Z</time>
    </trkpt>
   <trkpt lat="31.2918650" lon="121.2119556">
    <ele>2</ele>
    <time>2024-01-01T00:01:56Z</time>
    </trkpt>
   <trkpt lat="31.2918366" lon="121.2119529">
    <ele>2</ele>
    <time>2024-01-01T00:01:57Z</time>
    </trkpt>
   <trkpt lat="31.2918083" lon="121.2119502">
    <ele>2</ele>
    <time>2024-01-01T00:01:58Z</time>
    </trkpt>
   <trkpt lat="31.2917799" lon="121.2119475">
    <ele>2</ele>
    <time>2024-01-01T00:01:59Z</time>
    </trkpt>
   <trkpt lat="31.2917515" lon="121.2119460">
    <ele>2</ele>
    <time>2024-01-01T00:02:00Z</time>
    </trkpt>
   <trkpt lat="31.2917228" lon="121.2119470">
    <ele>2</ele>
    <time>2024-01-01T00:02:01Z</time>
    </trkpt>
   <trkpt lat="31.2916936" lon="121.2119507">
    <ele>2</ele>
    <time>2024-01-01T00:02:02Z</time>
    </trkpt>
   <trkpt lat="31.2916642" lon="121.2119570">
    <ele>2</ele>
    <time>2024-01-01T00:02:03Z</time>
    </trkpt>
   <trkpt lat="31.2916346" lon="121.2119663">
    <ele>2</ele>
    <time>2024-01-01T00:02:04Z</time>
    </trkpt>
   <trkpt lat="31.2916056" lon="121.2119784">
    <ele>2</ele>
    <time>2024-01-01T00:02:05Z</time>
    </trkpt>
   <trkpt lat="31.2915774" lon="121.2119933">
    <ele>2</ele>
    <time>2024-01-01T00:02:06Z</time>
    </trkpt>
   <trkpt lat="31.2915500" lon="121.2120109">
    <ele>2</ele>
    <time>2024-01-01T00:02:07Z</time>
    </trkpt>
   <trkpt lat="31.2915238" lon="121.2120311">
    <ele>2</ele>
    <time>2024-01-01T00:02:08Z</time>
    </trkpt>
   <trkpt lat="31.2914990" lon="121.2120540">
    <ele>2</ele>
    <time>2024-01-01T00:02:09Z</time>
    </trkpt>
   <trkpt lat="31.2914758" lon="121.2120792">
    <ele>3</ele>
    <time>2024-01-01T00:02:10Z</time>
    </trkpt>
   <trkpt lat="31.2914552" lon="121.2121067">
    <ele>3</ele>
    <time>2024-01-01T00:02:11Z</time>
    </trkpt>
   <trkpt lat="31.2914361" lon="121.2121356">
    <ele>3</ele>
    <time>2024-01-01T00:02:12Z</time>
    </trkpt>
   <trkpt lat="31.2914191" lon="121.2121660">
    <ele>3</ele>
    <time>2024-01-01T00:02:13Z</time>
    </trkpt>
   <trkpt lat="31.2914045" lon="121.2121975">
    <ele>3</ele>
    <time>2024-01-01T00:02:14Z</time>
    </trkpt>
   <trkpt lat="31.2913922" lon="121.2122297">
    <ele>4</ele>
    <time>2024-01-01T00:02:15Z</time>
    </trkpt>
   <trkpt lat="31.2913824" lon="121.2122623">
    <ele>4</ele>
    <time>2024-01-01T00:02:16Z</time>
    </trkpt>
   <trkpt lat="31.2913747" lon="121.2122954">
    <ele>4</ele>
    <time>2024-01-01T00:02:17Z</time>
    </trkpt>
   <trkpt lat="31.2913691" lon="121.2123299">
    <ele>4</ele>
    <time>2024-01-01T00:02:18Z</time>
    </trkpt>
   <trkpt lat="31.2913658" lon="121.2123652">
    <ele>4</ele>
    <time>2024-01-01T00:02:19Z</time>
    </trkpt>
   <trkpt lat="31.2913649" lon="121.2124004">
    <ele>4</ele>
    <time>2024-01-01T00:02:20Z</time>
    </trkpt>
   <trkpt lat="31.2913663" lon="121.2124354">
    <ele>4</ele>
    <time>2024-01-01T00:02:21Z</time>
    </trkpt>
   <trkpt lat="31.2913699" lon="121.2124695">
    <ele>4</ele>
    <time>2024-01-01T00:02:22Z</time>
    </trkpt>
   <trkpt lat="31.2913757" lon="121.2125024">
    <ele>4</ele>
    <time>2024-01-01T00:02:23Z</time>
    </trkpt>
   <trkpt lat="31.2913833" lon="121.2125343">
    <ele>4</ele>
    <time>2024-01-01T00:02:24Z</time>
    </trkpt>
   <trkpt lat="31.2913929" lon="121.2125652">
    <ele>4</ele>
    <time>2024-01-01T00:02:25Z</time>
    </trkpt>
   <trkpt lat="31.2914044" lon="121.2125952">
    <ele>4</ele>
    <time>2024-01-01T00:02:26Z</time>
    </trkpt>
   <trkpt lat="31.2914175" lon="121.2126238">
    <ele>4</ele>
    <time>2024-01-01T00:02:27Z</time>
    </trkpt>
   <trkpt lat="31.2914322" lon="121.2126509">
    <ele>4</ele>
    <time>2024-01-01T00:02:28Z</time>
    </trkpt>
   <trkpt lat="31.2914485" lon="121.2126767">
    <ele>4</ele>
    <time>2024-01-01T00:02:29Z</time>
    </trkpt>
   <trkpt lat="31.2914662" lon="121.2127010">
    <ele>4</ele>
    <time>2024-01-01T00:02:30Z</time>
    </trkpt>
   <trkpt lat="31.2914854" lon="121.2127237">
    <ele>4</ele>
    <time>2024-01-01T00:02:31Z</time>
    </trkpt>
   <trkpt lat="31.2915062" lon="121.2127450">
    <ele>4</ele>
    <time>2024-01-01T00:02:32Z</time>
    </trkpt>
   <trkpt lat="31.2915283" lon="121.2127646">
    <ele>4</ele>
    <time>2024-01-01T00:02:33Z</time>
    </trkpt>
   <trkpt lat="31.2915513" lon="121.2127822">
    <ele>4</ele>
    <time>2024-01-01T00:02:34Z</time>
    </trkpt>
   <trkpt lat="31.2915752" lon="121.2127977">
    <ele>4</ele>
    <time>2024-01-01T00:02:35Z</time>
    </trkpt>
   <trkpt lat="31.2916000" lon="121.2128112">
    <ele>4</ele>
    <time>2024-01-01T00:02:36Z</time>
    </trkpt>
   <trkpt lat="31.2916250" lon="121.2128223">
    <ele>4</ele>
    <time>2024-01-01T00:02:37Z</time>
    </trkpt>
   <trkpt lat="31.2916498" lon="121.2128311">
    <ele>4</ele>
    <time>2024-01-01T00:02:38Z</time>
    </trkpt>
   <trkpt lat="31.2916744" lon="121.2128378">
    <ele>4</ele>
    <time>2024-01-01T00:02:39Z</time>
    </trkpt>
   <trkpt lat="31.2916987" lon="121.2128426">
    <ele>4</ele>
    <time>2024-01-01T00:02:40Z</time>
    </trkpt>
   <trkpt lat="31.2917238" lon="121.2128455">
    <ele>4</ele>
    <time>2024-01-01T00:02:41Z</time>
    </trkpt>
   <trkpt lat="31.2917521" lon="121.2128482">
    <ele>4</ele>
    <time>2024-01-01T00:02:42Z</time>
    </trkpt>
   <trkpt lat="31.2917816" lon="121.2128510">
    <ele>4</ele>
    <time>2024-01-01T00:02:43Z</time>
    </trkpt>
   <trkpt lat="31.2918118" lon="121.2128539">
    <ele>4</ele>
    <time>2024-01-01T00:02:44Z</time>
    </trkpt>
   <trkpt lat="31.2918437" lon="121.2128569">
    <ele>4</ele>
    <time>2024-01-01T00:02:45Z</time>
    </trkpt>
   <trkpt lat="31.2918757" lon="121.2128600">
    <ele>4</ele>
    <time>2024-01-01T00:02:46Z</time>
    </trkpt>
   <trkpt lat="31.2919073" lon="121.2128630">
    <ele>4</ele>
    <time>2024-01-01T00:02:47Z</time>
    </trkpt>
   <trkpt lat="31.2919384" lon="121.2128660">
    <ele>4</ele>
    <time>2024-01-01T00:02:48Z</time>
    </trkpt>
   <trkpt lat="31.2919687" lon="121.2128689">
    <ele>4</ele>
    <time>2024-01-01T00:02:49Z</time>
    </trkpt>
   <trkpt lat="31.2919980" lon="121.2128717">
    <ele>4</ele>
    <time>2024-01-01T00:02:50Z</time>
    </trkpt>
   <trkpt lat="31.2920267" lon="121.2128744">
    <ele>4</ele>
    <time>2024-01-01T00:02:51Z</time>
    </trkpt>
   <trkpt lat="31.2920547" lon="121.2128771">
    <ele>4</ele>
    <time>2024-01-01T00:02:52Z</time>
    </trkpt>
   <trkpt lat="31.2920823" lon="121.2128797">
    <ele>4</ele>
    <time>2024-01-01T00:02:53Z</time>
    </trkpt>
   <trkpt lat="31.2921096" lon="121.2128823">
    <ele>4</ele>
    <time>2024-01-01T00:02:54Z</time>
    </trkpt>
   <trkpt lat="31.2921366" lon="121.2128849">
    <ele>4</ele>
    <time>2024-01-01T00:02:55Z</time>
    </trkpt>
   <trkpt lat="31.2921634" lon="121.2128874">
    <ele>4</ele>
    <time>2024-01-01T00:02:56Z</time>
    </trkpt>
   <trkpt lat="31.2921903" lon="121.2128900">
    <ele>4</ele>
    <time>2024-01-01T00:02:57Z</time>
    </trkpt>
   <trkpt lat="31.2922177" lon="121.2128926">
    <ele>4</ele>
    <time>2024-01-01T00:02:58Z</time>
    </trkpt>
   <trkpt lat="31.2922460" lon="121.2128953">
    <ele>4</ele>
    <time>2024-01-01T00:02:59Z</time>
    </trkpt>
   <trkpt lat="31.2922748" lon="121.2128980">
    <ele>4</ele>
    <time>2024-01-01T00:03:00Z</time>
    </trkpt>
   <trkpt lat="31.2923045" lon="121.2129009">
    <ele>4</ele>
    <time>2024-01-01T00:03:01Z</time>
    </trkpt>
   <trkpt lat="31.2923353" lon="121.2129038">
    <ele>4</ele>
    <time>2024-01-01T00:03:02Z</time>
    </trkpt>
   <trkpt lat="31.2923665" lon="121.2129068">
    <ele>4</ele>
    <time>2024-01-01T00:03:03Z</time>
    </trkpt>
   <trkpt lat="31.2923978" lon="121.2129098">
    <ele>4</ele>
    <time>2024-01-01T00:03:04Z</time>
    </trkpt>
   <trkpt lat="31.2924291" lon="121.2129127">
    <ele>4</ele>
    <time>2024-01-01T00:03:05Z</time>
    </trkpt>
   <trkpt lat="31.2924602" lon="121.2129157">
    <ele>4</ele>
    <time>2024-01-01T00:03:06Z</time>
    </trkpt>
   <trkpt lat="31.2924896" lon="121.2129181">
    <ele>4</ele>
    <time>2024-01-01T00:03:07Z</time>
    </trkpt>
   <trkpt lat="31.2925189" lon="121.2129182">
    <ele>4</ele>
    <time>2024-01-01T00:03:08Z</time>
    </trkpt>
   <trkpt lat="31.2925484" lon="121.2129156">
    <ele>4</ele>
    <time>2024-01-01T00:03:09Z</time>
    </trkpt>
   <trkpt lat="31.2925782" lon="121.2129102">
    <ele>4</ele>
    <time>2024-01-01T00:03:10Z</time>
    </trkpt>
   <trkpt lat="31.2926076" lon="121.2129021">
    <ele>4</ele>
    <time>2024-01-01T00:03:11Z</time>
    </trkpt>
   <trkpt lat="31.2926362" lon="121.2128914">
    <ele>4</ele>
    <time>2024-01-01T00:03:12Z</time>
    </trkpt>
   <trkpt lat="31.2926639" lon="121.2128782">
    <ele>4</ele>
    <time>2024-01-01T00:03:13Z</time>
    </trkpt>
   <trkpt lat="31.2926903" lon="121.2128627">
    <ele>4</ele>
    <time>2024-01-01T00:03:14Z</time>
    </trkpt>
   <trkpt lat="31.2927153" lon="121.2128452">
    <ele>4</ele>
    <time>2024-01-01T00:03:15Z</time>
    </trkpt>
   <trkpt lat="31.2927387" lon="121.2128257">
    <ele>4</ele>
    <time>2024-01-01T00:03:16Z</time>
    </trkpt>
   <trkpt lat="31.2927608" lon="121.2128043">
    <ele>4</ele>
    <time>2024-01-01T00:03:17Z</time>
    </trkpt>
   <trkpt lat="31.2927812" lon="121.2127814">
    <ele>4</ele>
    <time>2024-01-01T00:03:18Z</time>
    </trkpt>
   <trkpt lat="31.2928000" lon="121.2127570">
    <ele>4</ele>
    <time>2024-01-01T00:03:19Z</time>
    </trkpt>
   <trkpt lat="31.2928171" lon="121.2127311">
    <ele>4</ele>
    <time>2024-01-01T00:03:20Z</time>
    </trkpt>
   <trkpt lat="31.2928324" lon="121.2127043">
    <ele>4</ele>
    <time>2024-01-01T00:03:21Z</time>
    </trkpt>
   <trkpt lat="31.2928458" lon="121.2126765">
    <ele>4</ele>
    <time>2024-01-01T00:03:22Z</time>
    </trkpt>
   <trkpt lat="31.2928576" lon="121.2126477">
    <ele>4</ele>
    <time>2024-01-01T00:03:23Z</time>
    </trkpt>
   <trkpt lat="31.2928675" lon="121.2126181">
    <ele>4</ele>
    <time>2024-01-01T00:03:24Z</time>
    </trkpt>
   <trkpt lat="31.2928756" lon="121.2125879">
    <ele>4</ele>
    <time>2024-01-01T00:03:25Z</time>
    </trkpt>
   <trkpt lat="31.2928819" lon="121.2125572">
    <ele>4</ele>
    <time>2024-01-01T00:03:26Z</time>
    </trkpt>
   <trkpt lat="31.2928863" lon="121.2125256">
    <ele>4</ele>
    <time>2024-01-01T00:03:27Z</time>
    </trkpt>
   <trkpt lat="31.2928888" lon="121.2124934">
    <ele>4</ele>
    <time>2024-01-01T00:03:28Z</time>
    </trkpt>
   <trkpt lat="31.2928893" lon="121.2124607">
    <ele>4</ele>
    <time>2024-01-01T00:03:29Z</time>
    </trkpt>
   <trkpt lat="31.2928878" lon="121.2124281">
    <ele>4</ele>
    <time>2024-01-01T00:03:30Z</time>
    </trkpt>
   <trkpt lat="31.2928843" lon="121.2123954">
    <ele>4</ele>
    <time>2024-01-01T00:03:31Z</time>
    </trkpt>
   <trkpt lat="31.2928786" lon="121.2123625">
    <ele>4</ele>
    <time>2024-01-01T00:03:32Z</time>
    </trkpt>
   <trkpt lat="31.2928705" lon="121.2123294">
    <ele>4</ele>
    <time>2024-01-01T00:03:33Z</time>
    </trkpt>
   <trkpt lat="31.2928601" lon="121.2122962">
    <ele>4</ele>
    <time>2024-01-01T00:03:34Z</time>
    </trkpt>
   <trkpt lat="31.2928471" lon="121.2122635">
    <ele>4</ele>
    <time>2024-01-01T00:03:35Z</time>
    </trkpt>
   <trkpt lat="31.2928317" lon="121.2122315">
    <ele>4</ele>
    <time>2024-01-01T00:03:36Z</time>
    </trkpt>
   <trkpt lat="31.2928140" lon="121.2122009">
    <ele>4</ele>
    <time>2024-01-01T00:03:37Z</time>
    </trkpt>
   <trkpt lat="31.2927940" lon="121.2121719">
    <ele>4</ele>
    <time>2024-01-01T00:03:38Z</time>
    </trkpt>
   <trkpt lat="31.2927721" lon="121.2121450">
    <ele>4</ele>
    <time>2024-01-01T00:03:39Z</time>
    </trkpt>
   <trkpt lat="31.2927482" lon="121.2121201">
    <ele>4</ele>
    <time>2024-01-01T00:03:40Z</time>
    </trkpt>
   <trkpt lat="31.2927223" lon="121.2120974">
    <ele>4</ele>
    <time>2024-01-01T00:03:41Z</time>
    </trkpt>
   <trkpt lat="31.2926948" lon="121.2120773">
    <ele>4</ele>
    <time>2024-01-01T00:03:42Z</time>
    </trkpt>
   <trkpt lat="31.2926663" lon="121.2120602">
    <ele>4</ele>
    <time>2024-01-01T00:03:43Z</time>
    </trkpt>
   <trkpt lat="31.2926369" lon="121.2120460">
    <ele>4</ele>
    <time>2024-01-01T00:03:44Z</time>
    </trkpt>
   <trkpt lat="31.2926069" lon="121.2120347">
    <ele>4</ele>
    <time>2024-01-01T00:03:45Z</time>
    </trkpt>
   <trkpt lat="31.2925765" lon="121.2120265">
    <ele>4</ele>
    <time>2024-01-01T00:03:46Z</time>
    </trkpt>
   <trkpt lat="31.2925458" lon="121.2120212">
    <ele>4</ele>
    <time>2024-01-01T00:03:47Z</time>
    </trkpt>
   <trkpt lat="31.2925148" lon="121.2120181">
    <ele>4</ele>
    <time>2024-01-01T00:03:48Z</time>
    </trkpt>
   <trkpt lat="31.2924839" lon="121.2120151">
    <ele>4</ele>
    <time>2024-01-01T00:03:49Z</time>
    </trkpt>
   <trkpt lat="31.2924532" lon="121.2120122">
    <ele>4</ele>
    <time>2024-01-01T00:03:50Z</time>
    </trkpt>
   <trkpt lat="31.2924226" lon="121.2120093">
    <ele>4</ele>
    <time>2024-01-01T00:03:51Z</time>
    </trkpt>
   <trkpt lat="31.2923921" lon="121.2120064">
    <ele>4</ele>
    <time>2024-01-01T00:03:52Z</time>
    </trkpt>
   <trkpt lat="31.2923617" lon="121.2120035">
    <ele>4</ele>
    <time>2024-01-01T00:03:53Z</time>
    </trkpt>
   <trkpt lat="31.2923320" lon="121.2120006">
    <ele>4</ele>
    <time>2024-01-01T00:03:54Z</time>
    </trkpt>
   <trkpt lat="31.2923026" lon="121.2119978">
    <ele>4</ele>
    <time>2024-01-01T00:03:55Z</time>
    </trkpt>
   <trkpt lat="31.2922733" lon="121.2119951">
    <ele>4</ele>
    <time>2024-01-01T00:03:56Z</time>
    </trkpt>
   <trkpt lat="31.2922438" lon="121.2119922">
    <ele>4</ele>
    <time>2024-01-01T00:03:57Z</time>
    </trkpt>
   <trkpt lat="31.2922143" lon="121.2119894">
    <ele>4</ele>
    <time>2024-01-01T00:03:58Z</time>
    </trkpt>
   <trkpt lat="31.2921845" lon="121.2119866">
    <ele>4</ele>
    <time>2024-01-01T00:03:59Z</time>
    </trkpt>
   <trkpt lat="31.2921547" lon="121.2119837">
    <ele>4</ele>
    <time>2024-01-01T00:04:00Z</time>
    </trkpt>
   <trkpt lat="31.2921250" lon="121.2119809">
    <ele>4</ele>
    <time>2024-01-01T00:04:01Z</time>
    </trkpt>
   <trkpt lat="31.2920955" lon="121.2119781">
    <ele>4</ele>
    <time>2024-01-01T00:04:02Z</time>
    </trkpt>
   <trkpt lat="31.2920660" lon="121.2119753">
    <ele>4</ele>
    <time>2024-01-01T00:04:03Z</time>
    </trkpt>
   <trkpt lat="31.2920366" lon="121.2119725">
    <ele>4</ele>
    <time>2024-01-01T00:04:04Z</time>
    </trkpt>
   <trkpt lat="31.2920073" lon="121.2119697">
    <ele>4</ele>
    <time>2024-01-01T00:04:05Z</time>
    </trkpt>
   <trkpt lat="31.2919777" lon="121.2119669">
    <ele>4</ele>
    <time>2024-01-01T00:04:06Z</time>
    </trkpt>
   <trkpt lat="31.2919478" lon="121.2119640">
    <ele>4</ele>
    <time>2024-01-01T00:04:07Z</time>
    </trkpt>
   <trkpt lat="31.2919174" lon="121.2119611">
    <ele>4</ele>
    <time>2024-01-01T00:04:08Z</time>
    </trkpt>
   <trkpt lat="31.2918869" lon="121.2119582">
    <ele>4</ele>
    <time>2024-01-01T00:04:09Z</time>
    </trkpt>
   <trkpt lat="31.2918564" lon="121.2119553">
    <ele>4</ele>
    <time>2024-01-01T00:04:10Z</time>
    </trkpt>
   <trkpt lat="31.2918260" lon="121.2119524">
    <ele>4</ele>
    <time>2024-01-01T00:04:11Z</time>
    </trkpt>
   <trkpt lat="31.2917955" lon="121.2119495">
    <ele>4</ele>
    <time>2024-01-01T00:04:12Z</time>
    </trkpt>
   <trkpt lat="31.2917647" lon="121.2119470">
    <ele>4</ele>
    <time>2024-01-01T00:04:13Z</time>
    </trkpt>
   <trkpt lat="31.2917331" lon="121.2119470">
    <ele>4</ele>
    <time>2024-01-01T00:04:14Z</time>
    </trkpt>
   <trkpt lat="31.2917015" lon="121.2119501">
    <ele>4</ele>
    <time>2024-01-01T00:04:15Z</time>
    </trkpt>
   <trkpt lat="31.2916701" lon="121.2119563">
    <ele>4</ele>
    <time>2024-01-01T00:04:16Z</time>
    </trkpt>
   <trkpt lat="31.2916395" lon="121.2119654">
    <ele>4</ele>
    <time>2024-01-01T00:04:17Z</time>
    </trkpt>
   <trkpt lat="31.2916099" lon="121.2119773">
    <ele>4</ele>
    <time>2024-01-01T00:04:18Z</time>
    </trkpt>
   <trkpt lat="31.2915813" lon="121.2119918">
    <ele>4</ele>
    <time>2024-01-01T00:04:19Z</time>
    </trkpt>
   <trkpt lat="31.2915538" lon="121.2120091">
    <ele>4</ele>
    <time>2024-01-01T00:04:20Z</time>
    </trkpt>
   <trkpt lat="31.2915277" lon="121.2120289">
    <ele>4</ele>
    <time>2024-01-01T00:04:21Z</time>
    </trkpt>
   <trkpt lat="31.2915029" lon="121.2120511">
    <ele>4</ele>
    <time>2024-01-01T00:04:22Z</time>
    </trkpt>
   <trkpt lat="31.2914799" lon="121.2120756">
    <ele>4</ele>
    <time>2024-01-01T00:04:23Z</time>
    </trkpt>
   <trkpt lat="31.2914588" lon="121.2121019">
    <ele>4</ele>
    <time>2024-01-01T00:04:24Z</time>
    </trkpt>
   <trkpt lat="31.2914399" lon="121.2121295">
    <ele>4</ele>
    <time>2024-01-01T00:04:25Z</time>
    </trkpt>
   <trkpt lat="31.2914234" lon="121.2121579">
    <ele>4</ele>
    <time>2024-01-01T00:04:26Z</time>
    </trkpt>
   <trkpt lat="31.2914089" lon="121.2121875">
    <ele>4</ele>
    <time>2024-01-01T00:04:27Z</time>
    </trkpt>
   <trkpt lat="31.2913962" lon="121.2122186">
    <ele>4</ele>
    <time>2024-01-01T00:04:28Z</time>
    </trkpt>
   <trkpt lat="31.2913854" lon="121.2122513">
    <ele>4</ele>
    <time>2024-01-01T00:04:29Z</time>
    </trkpt>
   <trkpt lat="31.2913768" lon="121.2122854">
    <ele>4</ele>
    <time>2024-01-01T00:04:30Z</time>
    </trkpt>
   <trkpt lat="31.2913703" lon="121.2123213">
    <ele>4</ele>
    <time>2024-01-01T00:04:31Z</time>
    </trkpt>
   <trkpt lat="31.2913662" lon="121.2123583">
    <ele>4</ele>
    <time>2024-01-01T00:04:32Z</time>
    </trkpt>
   <trkpt lat="31.2913649" lon="121.2123952">
    <ele>4</ele>
    <time>2024-01-01T00:04:33Z</time>
    </trkpt>
   <trkpt lat="31.2913660" lon="121.2124318">
    <ele>4</ele>
    <time>2024-01-01T00:04:34Z</time>
    </trkpt>
   <trkpt lat="31.2913696" lon="121.2124674">
    <ele>4</ele>
    <time>2024-01-01T00:04:35Z</time>
    </trkpt>
   <trkpt lat="31.2913755" lon="121.2125017">
    <ele>4</ele>
    <time>2024-01-01T00:04:36Z</time>
    </trkpt>
   <trkpt lat="31.2913834" lon="121.2125346">
    <ele>4</ele>
    <time>2024-01-01T00:04:37Z</time>
    </trkpt>
   <trkpt lat="31.2913932" lon="121.2125660">
    <ele>4</ele>
    <time>2024-01-01T00:04:38Z</time>
    </trkpt>
   <trkpt lat="31.2914046" lon="121.2125959">
    <ele>4</ele>
    <time>2024-01-01T00:04:39Z</time>
    </trkpt>
   <trkpt lat="31.2914177" lon="121.2126241">
    <ele>4</ele>
    <time>2024-01-01T00:04:40Z</time>
    </trkpt>
   <trkpt lat="31.2914322" lon="121.2126509">
    <ele>4</ele>
    <time>2024-01-01T00:04:41Z</time>
    </trkpt>
   <trkpt lat="31.2914480" lon="121.2126760">
    <ele>4</ele>
    <time>2024-01-01T00:04:42Z</time>
    </trkpt>
   <trkpt lat="31.2914650" lon="121.2126994">
    <ele>4</ele>
    <time>2024-01-01T00:04:43Z</time>
    </trkpt>
   <trkpt lat="31.2914832" lon="121.2127212">
    <ele>4</ele>
    <time>2024-01-01T00:04:44Z</time>
    </trkpt>
   <trkpt lat="31.2915025" lon="121.2127415">
    <ele>4</ele>
    <time>2024-01-01T00:04:45Z</time>
    </trkpt>
   <trkpt lat="31.2915231" lon="121.2127603">
    <ele>4</ele>
    <time>2024-01-01T00:04:46Z</time>
    </trkpt>
   <trkpt lat="31.2915451" lon="121.2127777">
    <ele>4</ele>
    <time>2024-01-01T00:04:47Z</time>
    </trkpt>
   <trkpt lat="31.2915681" lon="121.2127934">
    <ele>4</ele>
    <time>2024-01-01T00:04:48Z</time>
    </trkpt>
   <trkpt lat="31.2915923" lon="121.2128072">
    <ele>4</ele>
    <time>2024-01-01T00:04:49Z</time>
    </trkpt>
   <trkpt lat="31.2916173" lon="121.2128191">
    <ele>4</ele>
    <time>2024-01-01T00:04:50Z</time>
    </trkpt>
   <trkpt lat="31.2916429" lon="121.2128289">
    <ele>4</ele>
    <time>2024-01-01T00:04:51Z</time>
    </trkpt>
   <trkpt lat="31.2916688" lon="121.2128365">
    <ele>4</ele>
    <time>2024-01-01T00:04:52Z</time>
    </trkpt>
   <trkpt lat="31.2916948" lon="121.2128419">
    <ele>4</ele>
    <time>2024-01-01T00:04:53Z</time>
    </trkpt>
   <trkpt lat="31.2917212" lon="121.2128453">
    <ele>4</ele>
    <time>2024-01-01T00:04:54Z</time>
    </trkpt>
   <trkpt lat="31.2917521" lon="121.2128482">
    <ele>4</ele>
    <time>2024-01-01T00:04:55Z</time>
    </trkpt>
   <trkpt lat="31.2917830" lon="121.2128512">
    <ele>4</ele>
    <time>2024-01-01T00:04:56Z</time>
    </trkpt>
   <trkpt lat="31.2918141" lon="121.2128541">
    <ele>4</ele>
    <time>2024-01-01T00:04:57Z</time>
    </trkpt>
   <trkpt lat="31.2918449" lon="121.2128571">
    <ele>4</ele>
    <time>2024-01-01T00:04:58Z</time>
    </trkpt>
   <trkpt lat="31.2918753" lon="121.2128600">
    <ele>4</ele>
    <time>2024-01-01T00:04:59Z</time>
    </trkpt>
   <trkpt lat="31.2919059" lon="121.2128629">
    <ele>4</ele>
    <time>2024-01-01T00:05:00Z</time>
    </trkpt>
   <trkpt lat="31.2919365" lon="121.2128658">
    <ele>4</ele>
    <time>2024-01-01T00:05:01Z</time>
    </trkpt>
   <trkpt lat="31.2919670" lon="121.2128687">
    <ele>4</ele>
    <time>2024-01-01T00:05:02Z</time>
    </trkpt>
   <trkpt lat="31.2919972" lon="121.2128716">
    <ele>4</ele>
    <time>2024-01-01T00:05:03Z</time>
    </trkpt>
   <trkpt lat="31.2920273" lon="121.2128744">
    <ele>4</ele>
    <time>2024-01-01T00:05:04Z</time>
    </trkpt>
   <trkpt lat="31.2920575" lon="121.2128773">
    <ele>4</ele>
    <time>2024-01-01T00:05:05Z</time>
    </trkpt>
   <trkpt lat="31.2920878" lon="121.2128802">
    <ele>4</ele>
    <time>2024-01-01T00:05:06Z</time>
    </trkpt>
   <trkpt lat="31.2921182" lon="121.2128831">
    <ele>4</ele>
    <time>2024-01-01T00:05:07Z</time>
    </trkpt>
   <trkpt lat="31.2921487" lon="121.2128860">
    <ele>4</ele>
    <time>2024-01-01T00:05:08Z</time>
    </trkpt>
   <trkpt lat="31.2921793" lon="121.2128889">
    <ele>4</ele>
    <time>2024-01-01T00:05:09Z</time>
    </trkpt>
   <trkpt lat="31.2922100" lon="121.2128918">
    <ele>4</ele>
    <time>2024-01-01T00:05:10Z</time>
    </trkpt>
   <trkpt lat="31.2922410" lon="121.2128948">
    <ele>4</ele>
    <time>2024-01-01T00:05:11Z</time>
    </trkpt>
   <trkpt lat="31.2922724" lon="121.2128978">
    <ele>4</ele>
    <time>2024-01-01T00:05:12Z</time>
    </trkpt>
   <trkpt lat="31.2923041" lon="121.2129008">
    <ele>4</ele>
    <time>2024-01-01T00:05:13Z</time>
    </trkpt>
   <trkpt lat="31.2923361" lon="121.2129039">
    <ele>4</ele>
    <time>2024-01-01T00:05:14Z</time>
    </trkpt>
   <trkpt lat="31.2923683" lon="121.2129069">
    <ele>4</ele>
    <time>2024-01-01T00:05:15Z</time>
    </trkpt>
   <trkpt lat="31.2924003" lon="121.2129100">
    <ele>4</ele>
    <time>2024-01-01T00:05:16Z</time>
    </trkpt>
   <trkpt lat="31.2924324" lon="121.2129130">
    <ele>4</ele>
    <time>2024-01-01T00:05:17Z</time>
    </trkpt>
   <trkpt lat="31.2924649" lon="121.2129161">
    <ele>4</ele>
    <time>2024-01-01T00:05:18Z</time>
    </trkpt>
   <trkpt lat="31.2924961" lon="121.2129183">
    <ele>4</ele>
    <time>2024-01-01T00:05:19Z</time>
    </trkpt>
   <trkpt lat="31.2925273" lon="121.2129177">
    <ele>4</ele>
    <time>2024-01-01T00:05:20Z</time>
    </trkpt>
   <trkpt lat="31.2925585" lon="121.2129141">
    <ele>4</ele>
    <time>2024-01-01T00:05:21Z</time>
    </trkpt>
   <trkpt lat="31.2925893" lon="121.2129075">
    <ele>4</ele>
    <time>2024-01-01T00:05:22Z</time>
    </trkpt>
   <trkpt lat="31.2926192" lon="121.2128981">
    <ele>4</ele>
    <time>2024-01-01T00:05:23Z</time>
    </trkpt>
   <trkpt lat="31.2926483" lon="121.2128860">
    <ele>4</ele>
    <time>2024-01-01T00:05:24Z</time>
    </trkpt>
   <trkpt lat="31.2926768" lon="121.2128710">
    <ele>4</ele>
    <time>2024-01-01T00:05:25Z</time>
    </trkpt>
   <trkpt lat="31.2927039" lon="121.2128535">
    <ele>4</ele>
    <time>2024-01-01T00:05:26Z</time>
    </trkpt>
   <trkpt lat="31.2927297" lon="121.2128336">
    <ele>4</ele>
    <time>2024-01-01T00:05:27Z</time>
    </trkpt>
   <trkpt lat="31.2927540" lon="121.2128112">
    <ele>4</ele>
    <time>2024-01-01T00:05:28Z</time>
    </trkpt>
   <trkpt lat="31.2927768" lon="121.2127866">
    <ele>4</ele>
    <time>2024-01-01T00:05:29Z</time>
    </trkpt>
   <trkpt lat="31.2927977" lon="121.2127601">
    <ele>4</ele>
    <time>2024-01-01T00:05:30Z</time>
    </trkpt>
   <trkpt lat="31.2928167" lon="121.2127318">
    <ele>4</ele>
    <time>2024-01-01T00:05:31Z</time>
    </trkpt>
   <trkpt lat="31.2928337" lon="121.2127018">
    <ele>4</ele>
    <time>2024-01-01T00:05:32Z</time>
    </trkpt>
   <trkpt lat="31.2928487" lon="121.2126699">
    <ele>4</ele>
    <time>2024-01-01T00:05:33Z</time>
    </trkpt>
   <trkpt lat="31.2928616" lon="121.2126365">
    <ele>4</ele>
    <time>2024-01-01T00:05:34Z</time>
    </trkpt>
   <trkpt lat="31.2928722" lon="121.2126016">
    <ele>4</ele>
    <time>2024-01-01T00:05:35Z</time>
    </trkpt>
   <trkpt lat="31.2928803" lon="121.2125659">
    <ele>4</ele>
    <time>2024-01-01T00:05:36Z</time>
    </trkpt>
   <trkpt lat="31.2928858" lon="121.2125297">
    <ele>4</ele>
    <time>2024-01-01T00:05:37Z</time>
    </trkpt>
   <trkpt lat="31.2928888" lon="121.2124934">
    <ele>4</ele>
    <time>2024-01-01T00:05:38Z</time>
    </trkpt>
   <trkpt lat="31.2928893" lon="121.2124569">
    <ele>4</ele>
    <time>2024-01-01T00:05:39Z</time>
    </trkpt>
   <trkpt lat="31.2928871" lon="121.2124197">
    <ele>4</ele>
    <time>2024-01-01T00:05:40Z</time>
    </trkpt>
   <trkpt lat="31.2928823" lon="121.2123824">
    <ele>4</ele>
    <time>2024-01-01T00:05:41Z</time>
    </trkpt>
   <trkpt lat="31.2928746" lon="121.2123450">
    <ele>4</ele>
    <time>2024-01-01T00:05:42Z</time>
    </trkpt>
   <trkpt lat="31.2928641" lon="121.2123081">
    <ele>4</ele>
    <time>2024-01-01T00:05:43Z</time>
    </trkpt>
   <trkpt lat="31.2928507" lon="121.2122719">
    <ele>4</ele>
    <time>2024-01-01T00:05:44Z</time>
    </trkpt>
   <trkpt lat="31.2928344" lon="121.2122367">
    <ele>4</ele>
    <time>2024-01-01T00:05:45Z</time>
    </trkpt>
   <trkpt lat="31.2928155" lon="121.2122032">
    <ele>4</ele>
    <time>2024-01-01T00:05:46Z</time>
    </trkpt>
   <trkpt lat="31.2927936" lon="121.2121714">
    <ele>4</ele>
    <time>2024-01-01T00:05:47Z</time>
    </trkpt>
   <trkpt lat="31.2927688" lon="121.2121413">
    <ele>4</ele>
    <time>2024-01-01T00:05:48Z</time>
    </trkpt>
   <trkpt lat="31.2927409" lon="121.2121133">
    <ele>4</ele>
    <time>2024-01-01T00:05:49Z</time>
    </trkpt>
   <trkpt lat="31.2927100" lon="121.2120880">
    <ele>4</ele>
    <time>2024-01-01T00:05:50Z</time>
    </trkpt>
   <trkpt lat="31.2926764" lon="121.2120658">
    <ele>4</ele>
    <time>2024-01-01T00:05:51Z</time>
    </trkpt>
   <trkpt lat="31.2926404" lon="121.2120475">
    <ele>4</ele>
    <time>2024-01-01T00:05:52Z</time>
    </trkpt>
   <trkpt lat="31.2926030" lon="121.2120335">
    <ele>4</ele>
    <time>2024-01-01T00:05:53Z</time>
    </trkpt>
   <trkpt lat="31.2925646" lon="121.2120241">
    <ele>4</ele>
    <time>2024-01-01T00:05:54Z</time>
    </trkpt>
   <trkpt lat="31.2925264" lon="121.2120192">
    <ele>4</ele>
    <time>2024-01-01T00:05:55Z</time>
    </trkpt>
   <trkpt lat="31.2924883" lon="121.2120155">
    <ele>4</ele>
    <time>2024-01-01T00:05:56Z</time>
    </trkpt>
   <trkpt lat="31.2924512" lon="121.2120120">
    <ele>4</ele>
    <time>2024-01-01T00:05:57Z</time>
    </trkpt>
   <trkpt lat="31.2924151" lon="121.2120086">
    <ele>4</ele>
    <time>2024-01-01T00:05:58Z</time>
    </trkpt>
   <trkpt lat="31.2923794" lon="121.2120052">
    <ele>4</ele>
    <time>2024-01-01T00:05:59Z</time>
    </trkpt>
   <trkpt lat="31.2923444" lon="121.2120018">
    <ele>4</ele>
    <time>2024-01-01T00:06:00Z</time>
    </trkpt>
   <trkpt lat="31.2923099" lon="121.2119985">
    <ele>4</ele>
    <time>2024-01-01T00:06:01Z</time>
    </trkpt>
   <trkpt lat="31.2922757" lon="121.2119953">
    <ele>4</ele>
    <time>2024-01-01T00:06:02Z</time>
    </trkpt>
   <trkpt lat="31.2922418" lon="121.2119921">
    <ele>4</ele>
    <time>2024-01-01T00:06:03Z</time>
    </trkpt>
   <trkpt lat="31.2922082" lon="121.2119888">
    <ele>4</ele>
    <time>2024-01-01T00:06:04Z</time>
    </trkpt>
   <trkpt lat="31.2921746" lon="121.2119856">
    <ele>4</ele>
    <time>2024-01-01T00:06:05Z</time>
    </trkpt>
   <trkpt lat="31.2921406" lon="121.2119824">
    <ele>4</ele>
    <time>2024-01-01T00:06:06Z</time>
    </trkpt>
   <trkpt lat="31.2921058" lon="121.2119791">
    <ele>4</ele>
    <time>2024-01-01T00:06:07Z</time>
    </trkpt>
   <trkpt lat="31.2920704" lon="121.2119757">
    <ele>4</ele>
    <time>2024-01-01T00:06:08Z</time>
    </trkpt>
   <trkpt lat="31.2920350" lon="121.2119723">
    <ele>4</ele>
    <time>2024-01-01T00:06:09Z</time>
    </trkpt>
   <trkpt lat="31.2920001" lon="121.2119690">
    <ele>4</ele>
    <time>2024-01-01T00:06:10Z</time>
    </trkpt>
   <trkpt lat="31.2919654" lon="121.2119657">
    <ele>4</ele>
    <time>2024-01-01T00:06:11Z</time>
    </trkpt>
   <trkpt lat="31.2919306" lon="121.2119624">
    <ele>4</ele>
    <time>2024-01-01T00:06:12Z</time>
    </trkpt>
   <trkpt lat="31.2918959" lon="121.2119591">
    <ele>4</ele>
    <time>2024-01-01T00:06:13Z</time>
    </trkpt>
   <trkpt lat="31.2918611" lon="121.2119558">
    <ele>4</ele>
    <time>2024-01-01T00:06:14Z</time>
    </trkpt>
   <trkpt lat="31.2918264" lon="121.2119525">
    <ele>4</ele>
    <time>2024-01-01T00:06:15Z</time>
    </trkpt>
   <trkpt lat="31.2917918" lon="121.2119492">
    <ele>4</ele>
    <time>2024-01-01T00:06:16Z</time>
    </trkpt>
   <trkpt lat="31.2917549" lon="121.2119467">
    <ele>4</ele>
    <time>2024-01-01T00:06:17Z</time>
    </trkpt>
   <trkpt lat="31.2917165" lon="121.2119483">
    <ele>4</ele>
    <time>2024-01-01T00:06:18Z</time>
    </trkpt>
   <trkpt lat="31.2916784" lon="121.2119543">
    <ele>4</ele>
    <time>2024-01-01T00:06:19Z</time>
    </trkpt>
   <trkpt lat="31.2916423" lon="121.2119644">
    <ele>4</ele>
    <time>2024-01-01T00:06:20Z</time>
    </trkpt>
   <trkpt lat="31.2916087" lon="121.2119778">
    <ele>4</ele>
    <time>2024-01-01T00:06:21Z</time>
    </trkpt>
   <trkpt lat="31.2915774" lon="121.2119941">
    <ele>4</ele>
    <time>2024-01-01T00:06:22Z</time>
    </trkpt>
   <trkpt lat="31.2915470" lon="121.2120140">
    <ele>4</ele>
    <time>2024-01-01T00:06:23Z</time>
    </trkpt>
   <trkpt lat="31.2915173" lon="121.2120378">
    <ele>4</ele>
    <time>2024-01-01T00:06:24Z</time>
    </trkpt>
   <trkpt lat="31.2914890" lon="121.2120654">
    <ele>4</ele>
    <time>2024-01-01T00:06:25Z</time>
    </trkpt>
   <trkpt lat="31.2914630" lon="121.2120963">
    <ele>4</ele>
    <time>2024-01-01T00:06:26Z</time>
    </trkpt>
   <trkpt lat="31.2914401" lon="121.2121292">
    <ele>4</ele>
    <time>2024-01-01T00:06:27Z</time>
    </trkpt>
   <trkpt lat="31.2914206" lon="121.2121632">
    <ele>4</ele>
    <time>2024-01-01T00:06:28Z</time>
    </trkpt>
   <trkpt lat="31.2914044" lon="121.2121977">
    <ele>4</ele>
    <time>2024-01-01T00:06:29Z</time>
    </trkpt>
   <trkpt lat="31.2913912" lon="121.2122330">
    <ele>4</ele>
    <time>2024-01-01T00:06:30Z</time>
    </trkpt>
   <trkpt lat="31.2913808" lon="121.2122684">
    <ele>4</ele>
    <time>2024-01-01T00:06:31Z</time>
    </trkpt>
   <trkpt lat="31.2913731" lon="121.2123038">
    <ele>4</ele>
    <time>2024-01-01T00:06:32Z</time>
    </trkpt>
   <trkpt lat="31.2913680" lon="121.2123390">
    <ele>4</ele>
    <time>2024-01-01T00:06:33Z</time>
    </trkpt>
   <trkpt lat="31.2913653" lon="121.2123745">
    <ele>4</ele>
    <time>2024-01-01T00:06:34Z</time>
    </trkpt>
   <trkpt lat="31.2913650" lon="121.2124103">
    <ele>4</ele>
    <time>2024-01-01T00:06:35Z</time>
    </trkpt>
   <trkpt lat="31.2913672" lon="121.2124464">
    <ele>4</ele>
    <time>2024-01-01T00:06:36Z</time>
    </trkpt>
   <trkpt lat="31.2913719" lon="121.2124821">
    <ele>4</ele>
    <time>2024-01-01T00:06:37Z</time>
    </trkpt>
   <trkpt lat="31.2913789" lon="121.2125170">
    <ele>4</ele>
    <time>2024-01-01T00:06:38Z</time>
    </trkpt>
   <trkpt lat="31.2913883" lon="121.2125514">
    <ele>4</ele>
    <time>2024-01-01T00:06:39Z</time>
    </trkpt>
   <trkpt lat="31.2914000" lon="121.2125846">
    <ele>4</ele>
    <time>2024-01-01T00:06:40Z</time>
    </trkpt>
   <trkpt lat="31.2914139" lon="121.2126165">
    <ele>4</ele>
    <time>2024-01-01T00:06:41Z</time>
    </trkpt>
   <trkpt lat="31.2914298" lon="121.2126468">
    <ele>4</ele>
    <time>2024-01-01T00:06:42Z</time>
    </trkpt>
   <trkpt lat="31.2914478" lon="121.2126757">
    <ele>4</ele>
    <time>2024-01-01T00:06:43Z</time>
    </trkpt>
   <trkpt lat="31.2914679" lon="121.2127031">
    <ele>4</ele>
    <time>2024-01-01T00:06:44Z</time>
    </trkpt>
   <trkpt lat="31.2914900" lon="121.2127287">
    <ele>4</ele>
    <time>2024-01-01T00:06:45Z</time>
    </trkpt>
   <trkpt lat="31.2915140" lon="121.2127523">
    <ele>4</ele>
    <time>2024-01-01T00:06:46Z</time>
    </trkpt>
   <trkpt lat="31.2915398" lon="121.2127738">
    <ele>4</ele>
    <time>2024-01-01T00:06:47Z</time>
    </trkpt>
   <trkpt lat="31.2915674" lon="121.2127929">
    <ele>4</ele>
    <time>2024-01-01T00:06:48Z</time>
    </trkpt>
   <trkpt lat="31.2915962" lon="121.2128093">
    <ele>4</ele>
    <time>2024-01-01T00:06:49Z</time>
    </trkpt>
   <trkpt lat="31.2916261" lon="121.2128227">
    <ele>4</ele>
    <time>2024-01-01T00:06:50Z</time>
    </trkpt>
   <trkpt lat="31.2916565" lon="121.2128332">
    <ele>4</ele>
    <time>2024-01-01T00:06:51Z</time>
    </trkpt>
   <trkpt lat="31.2916873" lon="121.2128406">
    <ele>4</ele>
    <time>2024-01-01T00:06:52Z</time>
    </trkpt>
   <trkpt lat="31.2917180" lon="121.2128450">
    <ele>4</ele>
    <time>2024-01-01T00:06:53Z</time>
    </trkpt>
   <trkpt lat="31.2917549" lon="121.2128485">
    <ele>4</ele>
    <time>2024-01-01T00:06:54Z</time>
    </trkpt>
   <trkpt lat="31.2917915" lon="121.2128520">
    <ele>4</ele>
    <time>2024-01-01T00:06:55Z</time>
    </trkpt>
   <trkpt lat="31.2918278" lon="121.2128554">
    <ele>4</ele>
    <time>2024-01-01T00:06:56Z</time>
    </trkpt>
   <trkpt lat="31.2918635" lon="121.2128588">
    <ele>4</ele>
    <time>2024-01-01T00:06:57Z</time>
    </trkpt>
   <trkpt lat="31.2918990" lon="121.2128622">
    <ele>4</ele>
    <time>2024-01-01T00:06:58Z</time>
    </trkpt>
   <trkpt lat="31.2919343" lon="121.2128656">
    <ele>4</ele>
    <time>2024-01-01T00:06:59Z</time>
    </trkpt>
   <trkpt lat="31.2919695" lon="121.2128689">
    <ele>4</ele>
    <time>2024-01-01T00:07:00Z</time>
    </trkpt>
   <trkpt lat="31.2920046" lon="121.2128723">
    <ele>4</ele>
    <time>2024-01-01T00:07:01Z</time>
    </trkpt>
   <trkpt lat="31.2920395" lon="121.2128756">
    <ele>4</ele>
    <time>2024-01-01T00:07:02Z</time>
    </trkpt>
   <trkpt lat="31.2920738" lon="121.2128789">
    <ele>4</ele>
    <time>2024-01-01T00:07:03Z</time>
    </trkpt>
   <trkpt lat="31.2921075" lon="121.2128821">
    <ele>4</ele>
    <time>2024-01-01T00:07:04Z</time>
    </trkpt>
   <trkpt lat="31.2921408" lon="121.2128853">
    <ele>4</ele>
    <time>2024-01-01T00:07:05Z</time>
    </trkpt>
   <trkpt lat="31.2921739" lon="121.2128884">
    <ele>4</ele>
    <time>2024-01-01T00:07:06Z</time>
    </trkpt>
   <trkpt lat="31.2922070" lon="121.2128916">
    <ele>4</ele>
    <time>2024-01-01T00:07:07Z</time>
    </trkpt>
   <trkpt lat="31.2922401" lon="121.2128947">
    <ele>4</ele>
    <time>2024-01-01T00:07:08Z</time>
    </trkpt>
   <trkpt lat="31.2922737" lon="121.2128979">
    <ele>4</ele>
    <time>2024-01-01T00:07:09Z</time>
    </trkpt>
   <trkpt lat="31.2923074" lon="121.2129011">
    <ele>4</ele>
    <time>2024-01-01T00:07:10Z</time>
    </trkpt>
   <trkpt lat="31.2923416" lon="121.2129044">
    <ele>4</ele>
    <time>2024-01-01T00:07:11Z</time>
    </trkpt>
   <trkpt lat="31.2923757" lon="121.2129076">
    <ele>4</ele>
    <time>2024-01-01T00:07:12Z</time>
    </trkpt>
   <trkpt lat="31.2924096" lon="121.2129109">
    <ele>4</ele>
    <time>2024-01-01T00:07:13Z</time>
    </trkpt>
   <trkpt lat="31.2924431" lon="121.2129141">
    <ele>4</ele>
    <time>2024-01-01T00:07:14Z</time>
    </trkpt>
   <trkpt lat="31.2924760" lon="121.2129172">
    <ele>4</ele>
    <time>2024-01-01T00:07:15Z</time>
    </trkpt>
   <trkpt lat="31.2925072" lon="121.2129185">
    <ele>4</ele>
    <time>2024-01-01T00:07:16Z</time>
    </trkpt>
   <trkpt lat="31.2925380" lon="121.2129168">
    <ele>4</ele>
    <time>2024-01-01T00:07:17Z</time>
    </trkpt>
   <trkpt lat="31.2925687" lon="121.2129122">
    <ele>4</ele>
    <time>2024-01-01T00:07:18Z</time>
    </trkpt>
   <trkpt lat="31.2925995" lon="121.2129046">
    <ele>4</ele>
    <time>2024-01-01T00:07:19Z</time>
    </trkpt>
   <trkpt lat="31.2926303" lon="121.2128939">
    <ele>4</ele>
    <time>2024-01-01T00:07:20Z</time>
    </trkpt>
   <trkpt lat="31.2926603" lon="121.2128801">
    <ele>4</ele>
    <time>2024-01-01T00:07:21Z</time>
    </trkpt>
   <trkpt lat="31.2926893" lon="121.2128633">
    <ele>4</ele>
    <time>2024-01-01T00:07:22Z</time>
    </trkpt>
   <trkpt lat="31.2927171" lon="121.2128437">
    <ele>4</ele>
    <time>2024-01-01T00:07:23Z</time>
    </trkpt>
   <trkpt lat="31.2927436" lon="121.2128213">
    <ele>4</ele>
    <time>2024-01-01T00:07:24Z</time>
    </trkpt>
   <trkpt lat="31.2927687" lon="121.2127959">
    <ele>4</ele>
    <time>2024-01-01T00:07:25Z</time>
    </trkpt>
   <trkpt lat="31.2927917" lon="121.2127682">
    <ele>4</ele>
    <time>2024-01-01T00:07:26Z</time>
    </trkpt>
   <trkpt lat="31.2928126" lon="121.2127383">
    <ele>4</ele>
    <time>2024-01-01T00:07:27Z</time>
    </trkpt>
   <trkpt lat="31.2928313" lon="121.2127064">
    <ele>4</ele>
    <time>2024-01-01T00:07:28Z</time>
    </trkpt>
   <trkpt lat="31.2928474" lon="121.2126730">
    <ele>4</ele>
    <time>2024-01-01T00:07:29Z</time>
    </trkpt>
   <trkpt lat="31.2928610" lon="121.2126382">
    <ele>4</ele>
    <time>2024-01-01T00:07:30Z</time>
    </trkpt>
   <trkpt lat="31.2928720" lon="121.2126024">
    <ele>4</ele>
    <time>2024-01-01T00:07:31Z</time>
    </trkpt>
   <trkpt lat="31.2928803" lon="121.2125660">
    <ele>4</ele>
    <time>2024-01-01T00:07:32Z</time>
    </trkpt>
   <trkpt lat="31.2928859" lon="121.2125294">
    <ele>4</ele>
    <time>2024-01-01T00:07:33Z</time>
    </trkpt>
   <trkpt lat="31.2928888" lon="121.2124931">
    <ele>4</ele>
    <time>2024-01-01T00:07:34Z</time>
    </trkpt>
   <trkpt lat="31.2928893" lon="121.2124574">
    <ele>4</ele>
    <time>2024-01-01T00:07:35Z</time>
    </trkpt>
   <trkpt lat="31.2928874" lon="121.2124223">
    <ele>4</ele>
    <time>2024-01-01T00:07:36Z</time>
    </trkpt>
   <trkpt lat="31.2928831" lon="121.2123878">
    <ele>4</ele>
    <time>2024-01-01T00:07:37Z</time>
    </trkpt>
   <trkpt lat="31.2928766" lon="121.2123535">
    <ele>4</ele>
    <time>2024-01-01T00:07:38Z</time>
    </trkpt>
   <trkpt lat="31.2928676" lon="121.2123191">
    <ele>4</ele>
    <time>2024-01-01T00:07:39Z</time>
    </trkpt>
   <trkpt lat="31.2928558" lon="121.2122845">
    <ele>4</ele>
    <time>2024-01-01T00:07:40Z</time>
    </trkpt>
   <trkpt lat="31.2928409" lon="121.2122498">
    <ele>4</ele>
    <time>2024-01-01T00:07:41Z</time>
    </trkpt>
   <trkpt lat="31.2928230" lon="121.2122158">
    <ele>4</ele>
    <time>2024-01-01T00:07:42Z</time>
    </trkpt>
   <trkpt lat="31.2928020" lon="121.2121829">
    <ele>4</ele>
    <time>2024-01-01T00:07:43Z</time>
    </trkpt>
   <trkpt lat="31.2927783" lon="121.2121521">
    <ele>4</ele>
    <time>2024-01-01T00:07:44Z</time>
    </trkpt>
   <trkpt lat="31.2927514" lon="121.2121233">
    <ele>4</ele>
    <time>2024-01-01T00:07:45Z</time>
    </trkpt>
   <trkpt lat="31.2927221" lon="121.2120972">
    <ele>4</ele>
    <time>2024-01-01T00:07:46Z</time>
    </trkpt>
   <trkpt lat="31.2926903" lon="121.2120743">
    <ele>4</ele>
    <time>2024-01-01T00:07:47Z</time>
    </trkpt>
   <trkpt lat="31.2926566" lon="121.2120551">
    <ele>4</ele>
    <time>2024-01-01T00:07:48Z</time>
    </trkpt>
   <trkpt lat="31.2926215" lon="121.2120398">
    <ele>4</ele>
    <time>2024-01-01T00:07:49Z</time>
    </trkpt>
   <trkpt lat="31.2925857" lon="121.2120287">
    <ele>4</ele>
    <time>2024-01-01T00:07:50Z</time>
    </trkpt>
   <trkpt lat="31.2925499" lon="121.2120217">
    <ele>4</ele>
    <time>2024-01-01T00:07:51Z</time>
    </trkpt>
   <trkpt lat="31.2925139" lon="121.2120180">
    <ele>4</ele>
    <time>2024-01-01T00:07:52Z</time>
    </trkpt>
   <trkpt lat="31.2924774" lon="121.2120145">
    <ele>4</ele>
    <time>2024-01-01T00:07:53Z</time>
    </trkpt>
   <trkpt lat="31.2924403" lon="121.2120110">
    <ele>4</ele>
    <time>2024-01-01T00:07:54Z</time>
    </trkpt>
   <trkpt lat="31.2924026" lon="121.2120074">
    <ele>4</ele>
    <time>2024-01-01T00:07:55Z</time>
    </trkpt>
   <trkpt lat="31.2923649" lon="121.2120038">
    <ele>4</ele>
    <time>2024-01-01T00:07:56Z</time>
    </trkpt>
   <trkpt lat="31.2923273" lon="121.2120002">
    <ele>4</ele>
    <time>2024-01-01T00:07:57Z</time>
    </trkpt>
   <trkpt lat="31.2922897" lon="121.2119966">
    <ele>4</ele>
    <time>2024-01-01T00:07:58Z</time>
    </trkpt>
   <trkpt lat="31.2922522" lon="121.2119930">
    <ele>4</ele>
    <time>2024-01-01T00:07:59Z</time>
    </trkpt>
   <trkpt lat="31.2922149" lon="121.2119895">
    <ele>4</ele>
    <time>2024-01-01T00:08:00Z</time>
    </trkpt>
   <trkpt lat="31.2921777" lon="121.2119859">
    <ele>4</ele>
    <time>2024-01-01T00:08:01Z</time>
    </trkpt>
   <trkpt lat="31.2921407" lon="121.2119824">
    <ele>4</ele>
    <time>2024-01-01T00:08:02Z</time>
    </trkpt>
   <trkpt lat="31.2921038" lon="121.2119789">
    <ele>4</ele>
    <time>2024-01-01T00:08:03Z</time>
    </trkpt>
   <trkpt lat="31.2920670" lon="121.2119754">
    <ele>4</ele>
    <time>2024-01-01T00:08:04Z</time>
    </trkpt>
   <trkpt lat="31.2920298" lon="121.2119718">
    <ele>4</ele>
    <time>2024-01-01T00:08:05Z</time>
    </trkpt>
   <trkpt lat="31.2919928" lon="121.2119683">
    <ele>4</ele>
    <time>2024-01-01T00:08:06Z</time>
    </trkpt>
   <trkpt lat="31.2919559" lon="121.2119648">
    <ele>4</ele>
    <time>2024-01-01T00:08:07Z</time>
    </trkpt>
   <trkpt lat="31.2919188" lon="121.2119613">
    <ele>4</ele>
    <time>2024-01-01T00:08:08Z</time>
    </trkpt>
   <trkpt lat="31.2918817" lon="121.2119577">
    <ele>4</ele>
    <time>2024-01-01T00:08:09Z</time>
    </trkpt>
   <trkpt lat="31.2918449" lon="121.2119542">
    <ele>4</ele>
    <time>2024-01-01T00:08:10Z</time>
    </trkpt>
   <trkpt lat="31.2918085" lon="121.2119508">
    <ele>4</ele>
    <time>2024-01-01T00:08:11Z</time>
    </trkpt>
   <trkpt lat="31.2917716" lon="121.2119474">
    <ele>4</ele>
    <time>2024-01-01T00:08:12Z</time>
    </trkpt>
   <trkpt lat="31.2917314" lon="121.2119471">
    <ele>4</ele>
    <time>2024-01-01T00:08:13Z</time>
    </trkpt>
   <trkpt lat="31.2916918" lon="121.2119517">
    <ele>4</ele>
    <time>2024-01-01T00:08:14Z</time>
    </trkpt>
   <trkpt lat="31.2916530" lon="121.2119609">
    <ele>4</ele>
    <time>2024-01-01T00:08:15Z</time>
    </trkpt>
   <trkpt lat="31.2916157" lon="121.2119747">
    <ele>4</ele>
    <time>2024-01-01T00:08:16Z</time>
    </trkpt>
   <trkpt lat="31.2915802" lon="121.2119925">
    <ele>4</ele>
    <time>2024-01-01T00:08:17Z</time>
    </trkpt>
   <trkpt lat="31.2915468" lon="121.2120141">
    <ele>4</ele>
    <time>2024-01-01T00:08:18Z</time>
    </trkpt>
   <trkpt lat="31.2915156" lon="121.2120393">
    <ele>4</ele>
    <time>2024-01-01T00:08:19Z</time>
    </trkpt>
   <trkpt lat="31.2914868" lon="121.2120679">
    <ele>4</ele>
    <time>2024-01-01T00:08:20Z</time>
    </trkpt>
   <trkpt lat="31.2914608" lon="121.2120991">
    <ele>4</ele>
    <time>2024-01-01T00:08:21Z</time>
    </trkpt>
   <trkpt lat="31.2914379" lon="121.2121327">
    <ele>4</ele>
    <time>2024-01-01T00:08:22Z</time>
    </trkpt>
   <trkpt lat="31.2914180" lon="121.2121683">
    <ele>4</ele>
    <time>2024-01-01T00:08:23Z</time>
    </trkpt>
   <trkpt lat="31.2914011" lon="121.2122058">
    <ele>4</ele>
    <time>2024-01-01T00:08:24Z</time>
    </trkpt>
   <trkpt lat="31.2913876" lon="121.2122442">
    <ele>4</ele>
    <time>2024-01-01T00:08:25Z</time>
    </trkpt>
   <trkpt lat="31.2913773" lon="121.2122829">
    <ele>4</ele>
    <time>2024-01-01T00:08:26Z</time>
    </trkpt>
   <trkpt lat="31.2913703" lon="121.2123213">
    <ele>4</ele>
    <time>2024-01-01T00:08:27Z</time>
    </trkpt>
   <trkpt lat="31.2913662" lon="121.2123592">
    <ele>4</ele>
    <time>2024-01-01T00:08:28Z</time>
    </trkpt>
   <trkpt lat="31.2913648" lon="121.2123965">
    <ele>4</ele>
    <time>2024-01-01T00:08:29Z</time>
    </trkpt>
   <trkpt lat="31.2913661" lon="121.2124335">
    <ele>4</ele>
    <time>2024-01-01T00:08:30Z</time>
    </trkpt>
   <trkpt lat="31.2913698" lon="121.2124686">
    <ele>4</ele>
    <time>2024-01-01T00:08:31Z</time>
    </trkpt>
   <trkpt lat="31.2913756" lon="121.2125020">
    <ele>4</ele>
    <time>2024-01-01T00:08:32Z</time>
    </trkpt>
   <trkpt lat="31.2913832" lon="121.2125339">
    <ele>4</ele>
    <time>2024-01-01T00:08:33Z</time>
    </trkpt>
   <trkpt lat="31.2913928" lon="121.2125649">
    <ele>4</ele>
    <time>2024-01-01T00:08:34Z</time>
    </trkpt>
   <trkpt lat="31.2914043" lon="121.2125951">
    <ele>4</ele>
    <time>2024-01-01T00:08:35Z</time>
    </trkpt>
   <trkpt lat="31.2914178" lon="121.2126243">
    <ele>4</ele>
    <time>2024-01-01T00:08:36Z</time>
    </trkpt>
   <trkpt lat="31.2914331" lon="121.2126524">
    <ele>4</ele>
    <time>2024-01-01T00:08:37Z</time>
    </trkpt>
   <trkpt lat="31.2914504" lon="121.2126795">
    <ele>4</ele>
    <time>2024-01-01T00:08:38Z</time>
    </trkpt>
   <trkpt lat="31.2914701" lon="121.2127058">
    <ele>4</ele>
    <time>2024-01-01T00:08:39Z</time>
    </trkpt>
   <trkpt lat="31.2914922" lon="121.2127310">
    <ele>4</ele>
    <time>2024-01-01T00:08:40Z</time>
    </trkpt>
   <trkpt lat="31.2915168" lon="121.2127549">
    <ele>4</ele>
    <time>2024-01-01T00:08:41Z</time>
    </trkpt>
   <trkpt lat="31.2915443" lon="121.2127772">
    <ele>4</ele>
    <time>2024-01-01T00:08:42Z</time>
    </trkpt>
   <trkpt lat="31.2915738" lon="121.2127968">
    <ele>4</ele>
    <time>2024-01-01T00:08:43Z</time>
    </trkpt>
   <trkpt lat="31.2916052" lon="121.2128137">
    <ele>4</ele>
    <time>2024-01-01T00:08:44Z</time>
    </trkpt>
   <trkpt lat="31.2916380" lon="121.2128272">
    <ele>4</ele>
    <time>2024-01-01T00:08:45Z</time>
    </trkpt>
   <trkpt lat="31.2916718" lon="121.2128372">
    <ele>4</ele>
    <time>2024-01-01T00:08:46Z</time>
    </trkpt>
   <trkpt lat="31.2917059" lon="121.2128436">
    <ele>4</ele>
    <time>2024-01-01T00:08:47Z</time>
    </trkpt>
   <trkpt lat="31.2917435" lon="121.2128474">
    <ele>4</ele>
    <time>2024-01-01T00:08:48Z</time>
    </trkpt>
   <trkpt lat="31.2917826" lon="121.2128511">
    <ele>4</ele>
    <time>2024-01-01T00:08:49Z</time>
    </trkpt>
   <trkpt lat="31.2918216" lon="121.2128548">
    <ele>4</ele>
    <time>2024-01-01T00:08:50Z</time>
    </trkpt>
   <trkpt lat="31.2918605" lon="121.2128585">
    <ele>4</ele>
    <time>2024-01-01T00:08:51Z</time>
    </trkpt>
   <trkpt lat="31.2918993" lon="121.2128622">
    <ele>4</ele>
    <time>2024-01-01T00:08:52Z</time>
    </trkpt>
   <trkpt lat="31.2919378" lon="121.2128659">
    <ele>4</ele>
    <time>2024-01-01T00:08:53Z</time>
    </trkpt>
   <trkpt lat="31.2919762" lon="121.2128696">
    <ele>4</ele>
    <time>2024-01-01T00:08:54Z</time>
    </trkpt>
   <trkpt lat="31.2920149" lon="121.2128733">
    <ele>4</ele>
    <time>2024-01-01T00:08:55Z</time>
    </trkpt>
   <trkpt lat="31.2920538" lon="121.2128770">
    <ele>4</ele>
    <time>2024-01-01T00:08:56Z</time>
    </trkpt>
   <trkpt lat="31.2920935" lon="121.2128808">
    <ele>4</ele>
    <time>2024-01-01T00:08:57Z</time>
    </trkpt>
   <trkpt lat="31.2921341" lon="121.2128846">
    <ele>4</ele>
    <time>2024-01-01T00:08:58Z</time>
    </trkpt>
   <trkpt lat="31.2921753" lon="121.2128885">
    <ele>4</ele>
    <time>2024-01-01T00:08:59Z</time>
    </trkpt>
   <trkpt lat="31.2922172" lon="121.2128925">
    <ele>4</ele>
    <time>2024-01-01T00:09:00Z</time>
    </trkpt>
   <trkpt lat="31.2922592" lon="121.2128965">
    <ele>4</ele>
    <time>2024-01-01T00:09:01Z</time>
    </trkpt>
   <trkpt lat="31.2923009" lon="121.2129005">
    <ele>4</ele>
    <time>2024-01-01T00:09:02Z</time>
    </trkpt>
   <trkpt lat="31.2923420" lon="121.2129044">
    <ele>4</ele>
    <time>2024-01-01T00:09:03Z</time>
    </trkpt>
   <trkpt lat="31.2923827" lon="121.2129083">
    <ele>4</ele>
    <time>2024-01-01T00:09:04Z</time>
    </trkpt>
   <trkpt lat="31.2924231" lon="121.2129122">
    <ele>4</ele>
    <time>2024-01-01T00:09:05Z</time>
    </trkpt>
   <trkpt lat="31.2924633" lon="121.2129160">
    <ele>4</ele>
    <time>2024-01-01T00:09:06Z</time>
    </trkpt>
   <trkpt lat="31.2925023" lon="121.2129185">
    <ele>4</ele>
    <time>2024-01-01T00:09:07Z</time>
    </trkpt>
   <trkpt lat="31.2925409" lon="121.2129165">
    <ele>4</ele>
    <time>2024-01-01T00:09:08Z</time>
    </trkpt>
   <trkpt lat="31.2925782" lon="121.2129102">
    <ele>4</ele>
    <time>2024-01-01T00:09:09Z</time>
    </trkpt>
   <trkpt lat="31.2926142" lon="121.2128999">
    <ele>4</ele>
    <time>2024-01-01T00:09:10Z</time>
    </trkpt>
   <trkpt lat="31.2926483" lon="121.2128860">
    <ele>4</ele>
    <time>2024-01-01T00:09:11Z</time>
    </trkpt>
   <trkpt lat="31.2926800" lon="121.2128691">
    <ele>4</ele>
    <time>2024-01-01T00:09:12Z</time>
    </trkpt>
   <trkpt lat="31.2927099" lon="121.2128492">
    <ele>4</ele>
    <time>2024-01-01T00:09:13Z</time>
    </trkpt>
   <trkpt lat="31.2927378" lon="121.2128265">
    <ele>4</ele>
    <time>2024-01-01T00:09:14Z</time>
    </trkpt>
   <trkpt lat="31.2927642" lon="121.2128008">
    <ele>4</ele>
    <time>2024-01-01T00:09:15Z</time>
    </trkpt>
   <trkpt lat="31.2927887" lon="121.2127721">
    <ele>4</ele>
    <time>2024-01-01T00:09:16Z</time>
    </trkpt>
   <trkpt lat="31.2928114" lon="121.2127401">
    <ele>4</ele>
    <time>2024-01-01T00:09:17Z</time>
    </trkpt>
   <trkpt lat="31.2928318" lon="121.2127053">
    <ele>4</ele>
    <time>2024-01-01T00:09:18Z</time>
    </trkpt>
   <trkpt lat="31.2928495" lon="121.2126681">
    <ele>4</ele>
    <time>2024-01-01T00:09:19Z</time>
    </trkpt>
   <trkpt lat="31.2928639" lon="121.2126296">
    <ele>4</ele>
    <time>2024-01-01T00:09:20Z</time>
    </trkpt>
   <trkpt lat="31.2928750" lon="121.2125906">
    <ele>4</ele>
    <time>2024-01-01T00:09:21Z</time>
    </trkpt>
   <trkpt lat="31.2928829" lon="121.2125512">
    <ele>4</ele>
    <time>2024-01-01T00:09:22Z</time>
    </trkpt>
   <trkpt lat="31.2928877" lon="121.2125112">
    <ele>4</ele>
    <time>2024-01-01T00:09:23Z</time>
    </trkpt>
   <trkpt lat="31.2928894" lon="121.2124707">
    <ele>4</ele>
    <time>2024-01-01T00:09:24Z</time>
    </trkpt>
   <trkpt lat="31.2928880" lon="121.2124299">
    <ele>4</ele>
    <time>2024-01-01T00:09:25Z</time>
    </trkpt>
   <trkpt lat="31.2928834" lon="121.2123892">
    <ele>4</ele>
    <time>2024-01-01T00:09:26Z</time>
    </trkpt>
   <trkpt lat="31.2928754" lon="121.2123483">
    <ele>4</ele>
    <time>2024-01-01T00:09:27Z</time>
    </trkpt>
   <trkpt lat="31.2928639" lon="121.2123074">
    <ele>4</ele>
    <time>2024-01-01T00:09:28Z</time>
    </trkpt>
   <trkpt lat="31.2928485" lon="121.2122666">
    <ele>4</ele>
    <time>2024-01-01T00:09:29Z</time>
    </trkpt>
   <trkpt lat="31.2928292" lon="121.2122268">
    <ele>4</ele>
    <time>2024-01-01T00:09:30Z</time>
    </trkpt>
   <trkpt lat="31.2928058" lon="121.2121884">
    <ele>4</ele>
    <time>2024-01-01T00:09:31Z</time>
    </trkpt>
   <trkpt lat="31.2927786" lon="121.2121526">
    <ele>4</ele>
    <time>2024-01-01T00:09:32Z</time>
    </trkpt>
   <trkpt lat="31.2927477" lon="121.2121197">
    <ele>4</ele>
    <time>2024-01-01T00:09:33Z</time>
    </trkpt>
   <trkpt lat="31.2927136" lon="121.2120907">
    <ele>4</ele>
    <time>2024-01-01T00:09:34Z</time>
    </trkpt>
   <trkpt lat="31.2926767" lon="121.2120660">
    <ele>4</ele>
    <time>2024-01-01T00:09:35Z</time>
    </trkpt>
   <trkpt lat="31.2926375" lon="121.2120462">
    <ele>4</ele>
    <time>2024-01-01T00:09:36Z</time>
    </trkpt>
   <trkpt lat="31.2925957" lon="121.2120313">
    <ele>4</ele>
    <time>2024-01-01T00:09:37Z</time>
    </trkpt>
   <trkpt lat="31.2925524" lon="121.2120221">
    <ele>4</ele>
    <time>2024-01-01T00:09:38Z</time>
    </trkpt>
   <trkpt lat="31.2925089" lon="121.2120175">
    <ele>4</ele>
    <time>2024-01-01T00:09:39Z</time>
    </trkpt>
   <trkpt lat="31.2924659" lon="121.2120134">
    <ele>4</ele>
    <time>2024-01-01T00:09:40Z</time>
    </trkpt>
   <trkpt lat="31.2924234" lon="121.2120093">
    <ele>4</ele>
    <time>2024-01-01T00:09:41Z</time>
    </trkpt>
   <trkpt lat="31.2923812" lon="121.2120053">
    <ele>4</ele>
    <time>2024-01-01T00:09:42Z</time>
    </trkpt>
   <trkpt lat="31.2923390" lon="121.2120013">
    <ele>4</ele>
    <time>2024-01-01T00:09:43Z</time>
    </trkpt>
   <trkpt lat="31.2922971" lon="121.2119973">
    <ele>4</ele>
    <time>2024-01-01T00:09:44Z</time>
    </trkpt>
   <trkpt lat="31.2922552" lon="121.2119933">
    <ele>4</ele>
    <time>2024-01-01T00:09:45Z</time>
    </trkpt>
   <trkpt lat="31.2922137" lon="121.2119894">
    <ele>4</ele>
    <time>2024-01-01T00:09:46Z</time>
    </trkpt>
   <trkpt lat="31.2921724" lon="121.2119854">
    <ele>4</ele>
    <time>2024-01-01T00:09:47Z</time>
    </trkpt>
   <trkpt lat="31.2921316" lon="121.2119815">
    <ele>4</ele>
    <time>2024-01-01T00:09:48Z</time>
    </trkpt>
   <trkpt lat="31.2920914" lon="121.2119777">
    <ele>4</ele>
    <time>2024-01-01T00:09:49Z</time>
    </trkpt>
   <trkpt lat="31.2920517" lon="121.2119739">
    <ele>4</ele>
    <time>2024-01-01T00:09:50Z</time>
    </trkpt>
   <trkpt lat="31.2920123" lon="121.2119702">
    <ele>4</ele>
    <time>2024-01-01T00:09:51Z</time>
    </trkpt>
   <trkpt lat="31.2919732" lon="121.2119665">
    <ele>4</ele>
    <time>2024-01-01T00:09:52Z</time>
    </trkpt>
   <trkpt lat="31.2919348" lon="121.2119628">
    <ele>4</ele>
    <time>2024-01-01T00:09:53Z</time>
    </trkpt>
   <trkpt lat="31.2918970" lon="121.2119592">
    <ele>4</ele>
    <time>2024-01-01T00:09:54Z</time>
    </trkpt>
   <trkpt lat="31.2918596" lon="121.2119556">
    <ele>4</ele>
    <time>2024-01-01T00:09:55Z</time>
    </trkpt>
   <trkpt lat="31.2918223" lon="121.2119521">
    <ele>4</ele>
    <time>2024-01-01T00:09:56Z</time>
    </trkpt>
   <trkpt lat="31.2917848" lon="121.2119485">
    <ele>4</ele>
    <time>2024-01-01T00:09:57Z</time>
    </trkpt>
   <trkpt lat="31.2917431" lon="121.2119467">
    <ele>4</ele>
    <time>2024-01-01T00:09:58Z</time>
    </trkpt>
   <trkpt lat="31.2917009" lon="121.2119502">
    <ele>4</ele>
    <time>2024-01-01T00:09:59Z</time>
    </trkpt>
   <trkpt lat="31.2916598" lon="121.2119590">
    <ele>4</ele>
    <time>2024-01-01T00:10:00Z</time>
    </trkpt>
   <trkpt lat="31.2916205" lon="121.2119726">
    <ele>4</ele>
    <time>2024-01-01T00:10:01Z</time>
    </trkpt>
   <trkpt lat="31.2915831" lon="121.2119908">
    <ele>4</ele>
    <time>2024-01-01T00:10:02Z</time>
    </trkpt>
   <trkpt lat="31.2915483" lon="121.2120130">
    <ele>4</ele>
    <time>2024-01-01T00:10:03Z</time>
    </trkpt>
   <trkpt lat="31.2915162" lon="121.2120388">
    <ele>4</ele>
    <time>2024-01-01T00:10:04Z</time>
    </trkpt>
   <trkpt lat="31.2914869" lon="121.2120677">
    <ele>4</ele>
    <time>2024-01-01T00:10:05Z</time>
    </trkpt>
   <trkpt lat="31.2914606" lon="121.2120995">
    <ele>4</ele>
    <time>2024-01-01T00:10:06Z</time>
    </trkpt>
   <trkpt lat="31.2914374" lon="121.2121334">
    <ele>4</ele>
    <time>2024-01-01T00:10:07Z</time>
    </trkpt>
   <trkpt lat="31.2914177" lon="121.2121690">
    <ele>4</ele>
    <time>2024-01-01T00:10:08Z</time>
    </trkpt>
   <trkpt lat="31.2914011" lon="121.2122058">
    <ele>4</ele>
    <time>2024-01-01T00:10:09Z</time>
    </trkpt>
   <trkpt lat="31.2913879" lon="121.2122430">
    <ele>4</ele>
    <time>2024-01-01T00:10:10Z</time>
    </trkpt>
   <trkpt lat="31.2913781" lon="121.2122793">
    <ele>4</ele>
    <time>2024-01-01T00:10:11Z</time>
    </trkpt>
   <trkpt lat="31.2913716" lon="121.2123127">
    <ele>4</ele>
    <time>2024-01-01T00:10:12Z</time>
    </trkpt>
   <trkpt lat="31.2913677" lon="121.2123419">
    <ele>4</ele>
    <time>2024-01-01T00:10:13Z</time>
    </trkpt>
   <trkpt lat="31.2913657" lon="121.2123663">
    <ele>4</ele>
    <time>2024-01-01T00:10:14Z</time>
    </trkpt>
   <trkpt lat="31.2913651" lon="121.2124124">
    <ele>4</ele>
    <time>2024-01-01T00:10:15Z</time>
    </trkpt>
  </trkseg>
 </trk>
</gpx>